IRIDIUM 921             
1 24873U 97034E   24117.77736615  .00048365  00000+0  13803-2 0  9996
2 24873  86.3793 313.5135 0005670  90.3356 269.8545 15.35827793467283
IRIDIUM 26              
1 24903U 97043A   24118.19509087  .00001472  00000+0  49719-3 0  9992
2 24903  86.3908 285.1625 0002232  86.3003 273.8450 14.36312172397482
IRIDIUM 22              
1 24907U 97043E   24117.72328982  .00001220  00000+0  42007-3 0  9991
2 24907  86.3911 288.5594 0002094  91.2829 268.8608 14.35200579397024
DUMMY MASS 1            
1 24925U 97048A   24118.08954446  .00001135  00000+0  12630-3 0  9990
2 24925  86.3331 327.6150 0007123 161.7742 198.3740 14.86160534443554
DUMMY MASS 2            
1 24926U 97048B   24118.18520848  .00001123  00000+0  12565-3 0  9991
2 24926  86.3334 329.1046 0007451 173.8327 186.2991 14.85919537443352
IRIDIUM 29              
1 24944U 97051A   24117.81194268  .00000952  00000+0  32333-3 0  9991
2 24944  86.3929 318.4595 0002139  95.2058 264.9383 14.35653785393514
IRIDIUM 33              
1 24946U 97051C   24117.58145961  .00000684  00000+0  23654-3 0  9991
2 24946  86.3843 317.8110 0008137  13.6193 346.5221 14.34325740393014
IRIDIUM 28              
1 24948U 97051E   24117.64090682  .00001002  00000+0  33436-3 0  9993
2 24948  86.3931 316.2844 0002287  79.3888 280.7567 14.36603129394027
